start=new Date('2021-11-02T00:00:00.000Z').valueOf();
sats=[{"GP_ID":"188693159","APOAPSIS":"548.180","EPHEMERIS_TYPE":"0","MEAN_ELEMENT_THEORY":"SGP4","DECAY_DATE":null,"ARG_OF_PERICENTER":"111.9881","COUNTRY_CODE":"US","MEAN_MOTION_DDOT":"0.0000000000000","ELEMENT_SET_NO":"999","MEAN_MOTION_DOT":"-0.00000419","ECCENTRICITY":"0.00014250","BSTAR":"-0.00000921740000","RCS_SIZE":"LARGE","FILE":"3196819","OBJECT_NAME":"STARLINK-1583","OBJECT_TYPE":"PAYLOAD","RA_OF_ASC_NODE":"49.5642","INCLINATION":"53.0561","SITE":"AFETR","CLASSIFICATION_TYPE":"U","MEAN_MOTION":"15.06406733","NORAD_CAT_ID":"46064","LAUNCH_DATE":"2020-08-07","TLE_LINE1":"1 46064U 20055AP  21305.76561255 -.00000419  00000-0 -92174-5 0  9994","TIME_SYSTEM":"UTC","SEMIMAJOR_AXIS":"6925.328","CENTER_NAME":"EARTH","MEAN_ANOMALY":"248.1260","OBJECT_ID":"2020-055AP","PERIAPSIS":"546.206","REF_FRAME":"TEME","TLE_LINE2":"2 46064  53.0561  49.5642 0001425 111.9881 248.1260 15.06406733 69545","REV_AT_EPOCH":"6954","PERIOD":"95.592","EPOCH":"2021-11-01T18:22:28.924320"},{"OBJECT_NAME":"STARLINK-1515","OBJECT_TYPE":"PAYLOAD","FILE":"3196819","RA_OF_ASC_NODE":"29.6401","SITE":"AFETR","CLASSIFICATION_TYPE":"U","INCLINATION":"53.0513","NORAD_CAT_ID":"46065","MEAN_MOTION":"15.06397870","LAUNCH_DATE":"2020-08-07","OBJECT_ID":"2020-055AQ","MEAN_ANOMALY":"284.0552","PERIAPSIS":"546.282","REF_FRAME":"TEME","CENTER_NAME":"EARTH","TLE_LINE1":"1 46065U 20055AQ  21305.75914095  .00000342  00000-0  41837-4 0  9990","SEMIMAJOR_AXIS":"6925.355","TIME_SYSTEM":"UTC","REV_AT_EPOCH":"6980","PERIOD":"95.592","TLE_LINE2":"2 46065  53.0513  29.6401 0001354  76.0587 284.0552 15.06397870 69803","EPOCH":"2021-11-01T18:13:09.778080","APOAPSIS":"548.158","GP_ID":"188692408","EPHEMERIS_TYPE":"0","DECAY_DATE":null,"MEAN_ELEMENT_THEORY":"SGP4","ARG_OF_PERICENTER":"76.0587","COUNTRY_CODE":"US","MEAN_MOTION_DDOT":"0.0000000000000","ELEMENT_SET_NO":"999","ECCENTRICITY":"0.00013540","MEAN_MOTION_DOT":"0.00000342","BSTAR":"0.00004183700000","RCS_SIZE":"LARGE"},{"RA_OF_ASC_NODE":"29.5873","FILE":"3196819","OBJECT_TYPE":"PAYLOAD","OBJECT_NAME":"STARLINK-1525","MEAN_MOTION":"15.06392122","NORAD_CAT_ID":"46066","INCLINATION":"53.0561","CLASSIFICATION_TYPE":"U","SITE":"AFETR","TLE_LINE1":"1 46066U 20055AR  21305.76378594  .00001222  00000-0  10090-3 0  9994","SEMIMAJOR_AXIS":"6925.373","CENTER_NAME":"EARTH","TIME_SYSTEM":"UTC","REF_FRAME":"TEME","PERIAPSIS":"546.492","MEAN_ANOMALY":"270.3630","OBJECT_ID":"2020-055AR","LAUNCH_DATE":"2020-08-07","EPOCH":"2021-11-01T18:19:51.105216","TLE_LINE2":"2 46066  53.0561  29.5873 0001077  89.7482 270.3630 15.06392122 69817","PERIOD":"95.593","REV_AT_EPOCH":"6981","EPHEMERIS_TYPE":"0","GP_ID":"188692658","APOAPSIS":"547.984","COUNTRY_CODE":"US","ARG_OF_PERICENTER":"89.7482","MEAN_ELEMENT_THEORY":"SGP4","DECAY_DATE":null,"ELEMENT_SET_NO":"999","MEAN_MOTION_DDOT":"0.0000000000000","RCS_SIZE":"LARGE","BSTAR":"0.00010090000000","MEAN_MOTION_DOT":"0.00001222","ECCENTRICITY":"0.00010770"},{"CLASSIFICATION_TYPE":"U","SITE":"AFETR","INCLINATION":"53.0550","NORAD_CAT_ID":"46067","MEAN_MOTION":"15.06407874","OBJECT_TYPE":"PAYLOAD","OBJECT_NAME":"STARLINK-1529","FILE":"3196819","RA_OF_ASC_NODE":"29.5740","PERIOD":"95.592","REV_AT_EPOCH":"6982","TLE_LINE2":"2 46067  53.0550  29.5740 0001324  87.1427 272.9713 15.06407874 69827","EPOCH":"2021-11-01T18:25:08.216544","LAUNCH_DATE":"2020-08-07","PERIAPSIS":"546.273","REF_FRAME":"TEME","OBJECT_ID":"2020-055AS","MEAN_ANOMALY":"272.9713","TLE_LINE1":"1 46067U 20055AS  21305.76745621  .00003897  00000-0  28029-3 0  9995","CENTER_NAME":"EARTH","SEMIMAJOR_AXIS":"6925.324","TIME_SYSTEM":"UTC","ARG_OF_PERICENTER":"87.1427","MEAN_ELEMENT_THEORY":"SGP4","DECAY_DATE":null,"COUNTRY_CODE":"US","APOAPSIS":"548.106","GP_ID":"188692909","EPHEMERIS_TYPE":"0","ECCENTRICITY":"0.00013240","MEAN_MOTION_DOT":"0.00003897","RCS_SIZE":"LARGE","BSTAR":"0.00028029000000","MEAN_MOTION_DDOT":"0.0000000000000","ELEMENT_SET_NO":"999"},{"RCS_SIZE":"LARGE","BSTAR":"-0.00000845970000","MEAN_MOTION_DOT":"-0.00000407","ECCENTRICITY":"0.00013120","ELEMENT_SET_NO":"999","MEAN_MOTION_DDOT":"0.0000000000000","COUNTRY_CODE":"US","ARG_OF_PERICENTER":"80.7250","MEAN_ELEMENT_THEORY":"SGP4","DECAY_DATE":null,"EPHEMERIS_TYPE":"0","GP_ID":"188693660","APOAPSIS":"548.130","EPOCH":"2021-11-01T15:30:00.252000","TLE_LINE2":"2 46068  53.0544  30.1125 0001312  80.7250 279.3887 15.06397282 69808","REV_AT_EPOCH":"6980","PERIOD":"95.592","SEMIMAJOR_AXIS":"6925.357","TLE_LINE1":"1 46068U 20055AT  21305.64583625 -.00000407  00000-0 -84597-5 0  9997","CENTER_NAME":"EARTH","TIME_SYSTEM":"UTC","REF_FRAME":"TEME","PERIAPSIS":"546.313","OBJECT_ID":"2020-055AT","MEAN_ANOMALY":"279.3887","LAUNCH_DATE":"2020-08-07","MEAN_MOTION":"15.06397282","NORAD_CAT_ID":"46068","INCLINATION":"53.0544","CLASSIFICATION_TYPE":"U","SITE":"AFETR","RA_OF_ASC_NODE":"30.1125","FILE":"3196819","OBJECT_TYPE":"PAYLOAD","OBJECT_NAME":"STARLINK-1532"},{"EPOCH":"2021-11-01T22:13:22.708992","PERIOD":"95.592","REV_AT_EPOCH":"6985","TLE_LINE2":"2 46069  53.0551  28.8578 0001280  90.6188 269.4948 15.06401203 69859","OBJECT_ID":"2020-055AU","MEAN_ANOMALY":"269.4948","REF_FRAME":"TEME","PERIAPSIS":"546.323","TLE_LINE1":"1 46069U 20055AU  21305.92595728 -.00000018  00000-0  17656-4 0  9994","TIME_SYSTEM":"UTC","SEMIMAJOR_AXIS":"6925.345","CENTER_NAME":"EARTH","LAUNCH_DATE":"2020-08-07","NORAD_CAT_ID":"46069","MEAN_MOTION":"15.06401203","SITE":"AFETR","CLASSIFICATION_TYPE":"U","INCLINATION":"53.0551","RA_OF_ASC_NODE":"28.8578","OBJECT_NAME":"STARLINK-1533","OBJECT_TYPE":"PAYLOAD","FILE":"3196819","BSTAR":"0.00001765600000","RCS_SIZE":"LARGE","ECCENTRICITY":"0.00012800","MEAN_MOTION_DOT":"-0.00000018","ELEMENT_SET_NO":"999","MEAN_MOTION_DDOT":"0.0000000000000","COUNTRY_CODE":"US","MEAN_ELEMENT_THEORY":"SGP4","DECAY_DATE":null,"ARG_OF_PERICENTER":"90.6188","EPHEMERIS_TYPE":"0","APOAPSIS":"548.096","GP_ID":"188691908"},{"BSTAR":"0.00008475200000","RCS_SIZE":"LARGE","MEAN_MOTION_DOT":"0.00000981","ECCENTRICITY":"0.00012520","ELEMENT_SET_NO":"999","MEAN_MOTION_DDOT":"0.0000000000000","COUNTRY_CODE":"US","DECAY_DATE":null,"MEAN_ELEMENT_THEORY":"SGP4","ARG_OF_PERICENTER":"91.4895","EPHEMERIS_TYPE":"0","GP_ID":"188692158","APOAPSIS":"548.058","EPOCH":"2021-11-01T14:36:54.035136","TLE_LINE2":"2 46070  53.0550  30.2794 0001252  91.4895 268.6237 15.06407418 69801","PERIOD":"95.592","REV_AT_EPOCH":"6980","SEMIMAJOR_AXIS":"6925.326","TLE_LINE1":"1 46070U 20055AV  21305.60895874  .00000981  00000-0  84752-4 0  9995","CENTER_NAME":"EARTH","TIME_SYSTEM":"UTC","MEAN_ANOMALY":"268.6237","OBJECT_ID":"2020-055AV","REF_FRAME":"TEME","PERIAPSIS":"546.324","LAUNCH_DATE":"2020-08-07","MEAN_MOTION":"15.06407418","NORAD_CAT_ID":"46070","INCLINATION":"53.0550","SITE":"AFETR","CLASSIFICATION_TYPE":"U","RA_OF_ASC_NODE":"30.2794","FILE":"3196819","OBJECT_NAME":"STARLINK-1536","OBJECT_TYPE":"PAYLOAD"},{"MEAN_MOTION_DDOT":"0.0000000000000","ELEMENT_SET_NO":"999","MEAN_MOTION_DOT":"0.00009835","ECCENTRICITY":"0.00013740","BSTAR":"0.00067806000000","RCS_SIZE":"LARGE","GP_ID":"188693410","APOAPSIS":"548.138","EPHEMERIS_TYPE":"0","DECAY_DATE":null,"MEAN_ELEMENT_THEORY":"SGP4","ARG_OF_PERICENTER":"89.2191","COUNTRY_CODE":"US","LAUNCH_DATE":"2020-08-07","TLE_LINE1":"1 46071U 20055AW  21305.76008808  .00009835  00000-0  67806-3 0  9993","SEMIMAJOR_AXIS":"6925.321","CENTER_NAME":"EARTH","TIME_SYSTEM":"UTC","MEAN_ANOMALY":"270.8956","OBJECT_ID":"2020-055AW","PERIAPSIS":"546.235","REF_FRAME":"TEME","TLE_LINE2":"2 46071  53.0556  29.6125 0001374  89.2191 270.8956 15.06408894 69821","REV_AT_EPOCH":"6982","PERIOD":"95.592","EPOCH":"2021-11-01T18:14:31.610112","FILE":"3196819","OBJECT_NAME":"STARLINK-1538","OBJECT_TYPE":"PAYLOAD","RA_OF_ASC_NODE":"29.6125","INCLINATION":"53.0556","SITE":"AFETR","CLASSIFICATION_TYPE":"U","MEAN_MOTION":"15.06408894","NORAD_CAT_ID":"46071"},{"OBJECT_NAME":"STARLINK-1539","OBJECT_TYPE":"PAYLOAD","FILE":"3196819","RA_OF_ASC_NODE":"30.0756","SITE":"AFETR","CLASSIFICATION_TYPE":"U","INCLINATION":"53.0573","NORAD_CAT_ID":"46072","MEAN_MOTION":"15.06403001","LAUNCH_DATE":"2020-08-07","OBJECT_ID":"2020-055AX","MEAN_ANOMALY":"279.2332","REF_FRAME":"TEME","PERIAPSIS":"546.293","TLE_LINE1":"1 46072U 20055AX  21305.65225197 -.00000172  00000-0  73608-5 0  9999","SEMIMAJOR_AXIS":"6925.339","TIME_SYSTEM":"UTC","CENTER_NAME":"EARTH","PERIOD":"95.592","REV_AT_EPOCH":"6979","TLE_LINE2":"2 46072  53.0573  30.0756 0001316  80.8806 279.2332 15.06403001 69795","EPOCH":"2021-11-01T15:39:14.570208","APOAPSIS":"548.116","GP_ID":"188693160","EPHEMERIS_TYPE":"0","MEAN_ELEMENT_THEORY":"SGP4","DECAY_DATE":null,"ARG_OF_PERICENTER":"80.8806","COUNTRY_CODE":"US","MEAN_MOTION_DDOT":"0.0000000000000","ELEMENT_SET_NO":"999","ECCENTRICITY":"0.00013160","MEAN_MOTION_DOT":"-0.00000172","BSTAR":"0.00000736080000","RCS_SIZE":"LARGE"},{"EPOCH":"2021-11-01T16:01:49.627200","PERIOD":"95.592","REV_AT_EPOCH":"6980","TLE_LINE2":"2 46073  53.0567  30.0256 0001277  79.0005 281.1127 15.06402284 69809","OBJECT_ID":"2020-055AY","MEAN_ANOMALY":"281.1127","PERIAPSIS":"546.322","REF_FRAME":"TEME","SEMIMAJOR_AXIS":"6925.342","TLE_LINE1":"1 46073U 20055AY  21305.66793550  .00001581  00000-0  12502-3 0  9992","CENTER_NAME":"EARTH","TIME_SYSTEM":"UTC","LAUNCH_DATE":"2020-08-07","NORAD_CAT_ID":"46073","MEAN_MOTION":"15.06402284","SITE":"AFETR","CLASSIFICATION_TYPE":"U","INCLINATION":"53.0567","RA_OF_ASC_NODE":"30.0256","OBJECT_NAME":"STARLINK-1542","OBJECT_TYPE":"PAYLOAD","FILE":"3196819","BSTAR":"0.00012502000000","RCS_SIZE":"LARGE","ECCENTRICITY":"0.00012770","MEAN_MOTION_DOT":"0.00001581","ELEMENT_SET_NO":"999","MEAN_MOTION_DDOT":"0.0000000000000","COUNTRY_CODE":"US","MEAN_ELEMENT_THEORY":"SGP4","DECAY_DATE":null,"ARG_OF_PERICENTER":"79.0005","EPHEMERIS_TYPE":"0","APOAPSIS":"548.091","GP_ID":"188692409"}];
